#dP2018 10 24  0  0  0.00000000      96 __u+U IGS08 FIT  IAC
## 2024 259200.00000000   900.00000000 58415 0.0000000000000
+   92   C01C02C03C04C05C06C07C08C09C10C11C12C13C14E01E02E03
+        E04E05E07E08E09E11E12E14E18E19E21E24E25E26E27E30E31
+        G01G02G03G05G06G07G08G09G10G11G12G13G14G15G16G17G18
+        G19G20G21G22G23G24G25G26G27G28G29G30G31G32J01J02J03
+        J07R01R02R03R04R05R07R08R09R10R11R13R14R15R16R17R18
+        R19R20R21R22R23R24R26  0  0  0  0  0  0  0  0  0  0
++        12 12 12 12 12  8  8  8  7  8  7  7  9  7  7  7  7
++         7  7  7  7  7  7  7  7  7  7  7  7  7  7  7  7  6
++         3  3  3  3  3  3  3  3  3  3  3  3  3  3  3  3  3
++         3  3  3  3  3  3  3  3  3  3  3  3  3  3  8 11 11
++        20  5  5  5  5  5  5  5  5  5  5  5  5  5  5  5  5
++         5  5  5  5  5  5  8  0  0  0  0  0  0  0  0  0  0
%c M  cc GPS ccc cccc cccc cccc cccc ccccc ccccc ccccc ccccc
%c cc cc ccc ccc cccc cccc cccc cccc ccccc ccccc ccccc ccccc
%f  1.2500000  1.025000000  0.00000000000  0.000000000000000
%f  0.0000000  0.000000000  0.00000000000  0.000000000000000
%i    0    0    0    0      0      0      0      0         0
%i    0    0    0    0      0      0      0      0         0
/* INFORMATION & ANALYSIS CENTER (IAC)            FINAL DATA
/* S/V CLOCKS ARE ALIGNED TO GPS & GLONASS TIME RESPECTIVELY
/* USING THE BROADCAST EPHEMERIS                            
/* PCV:IGS14_2022 OL/AL:FES2004  NONE     YN ORB:CoN CLK:CoN
*  2018 10 24 14  0  0.00000000
PC01 -32292.156350  27141.889740    230.918683   -201.288648
PC02   4344.884576  41914.154611   -881.526898    -48.878296
PC03 -14769.505168  39463.592376   -118.240853   -217.058144
PC04 -39665.164836  14396.147625     24.185951     76.920191
PC05  21948.078697  35978.568389   -991.556718    200.362561
PC06 -22041.336443  35521.788392   4077.797236    410.162667
PC07  -7790.225282  31197.303530  27618.987828   -109.159119
PC08 -19839.902256  18273.856693 -32430.179586      8.582412
PC09  -9797.324520  35649.292613  20158.241549    225.457555
PC10   4387.946838  38086.734213  18125.310931   -180.314848
PC11 -13934.752588  -9674.869641  22233.565824     -9.972462
PC12   6391.869439 -18048.028224  20323.754403    169.443249
PC13  -1054.846264  23428.765360 -35032.641507   -341.774290
PC14  -9561.278236 -21102.251879 -15541.599584    673.251980
PE01 -21340.499913 -11209.750443  17181.448190   -462.961542
PE02  21333.952437  11187.048223 -17192.028114     32.418798
PE03  18178.615775    505.203046  23350.396652    -91.868804
PE04 -18930.365258  19148.171478 -12295.104534   -144.297604
PE05   6776.171674  19957.657530  20782.585919    171.466508
PE07   8554.436964 -27674.480312  -6065.713298    -62.452145
PE08  18676.294846 -19376.403172  12311.324432   6476.670925
PE09  -8351.217360  27748.039354   6083.146515   6638.392743
PE11  -6508.726114  16487.680902 -23710.645580   5700.163836
PE12 -25255.369910  10051.148743 -11708.068570   5343.270774
PE14 -19221.896100  18994.330102  -3574.504140   6499.929567
PE18  26429.365374 -10651.434870  -9240.737834   5808.704664
PE19 -17345.755153  -2534.884020 -23851.348200    -11.178130
PE21 -16266.143961 -24705.982344   -955.420832   -501.060087
PE24   1966.252501  23636.920292  17700.282195   6425.165002
PE25  16242.490642  24732.515620   1008.444184   2003.898437
PE26 -15441.630882 -13266.151794  21493.567851   5328.265734
PE27  -1572.662619 -23300.607896 -18173.141018    604.607812
PE30  13718.301028  -8793.070168 -24710.725448   5406.939249
PE31 -14030.412680   8251.933721  24736.672041   1001.618972
PG01  20592.260219  13912.759651  -9953.172639   -104.708091
PG02   -305.595917 -16075.233058  21743.678006    -39.096815
PG03  13344.693937  18906.160505  13058.272001    152.675600
PG05  -2721.986733 -25872.477926   4655.722176     -0.706653
PG06  15641.434005  -8977.265222  19535.869798    344.740997
PG07  25817.040223   5632.650084  -4282.086636    101.041719
PG08   2700.451361  16606.384656 -20463.239467   -119.723428
PG09  19645.949077   -956.261105  17812.734211    498.099120
PG10 -12548.994065  10611.400183 -20787.747901    171.644922
PG11  16689.206386  11742.479036 -17446.049481   -706.873833
PG12  -9755.340953 -22795.512062   9572.980336    297.398035
PG13   6083.751795 -19056.108989 -17573.747539    -86.288203
PG14 -17818.263560  18796.033809   5746.218475    -96.454855
PG15  -8247.440731 -14238.479051 -21034.862142   -342.072967
PG16  -1021.224761  25495.606064   6373.163166      2.576632
PG17  21759.942150 -14560.524239  -3652.006635    -40.193063
PG18  12505.962646  16292.178546 -17399.948607     71.743055
PG19  18564.643591 -18209.079801   5417.150556   -390.494498
PG20 -16425.386939    424.119412 -21005.340598    517.743305
PG21 -25394.423858  -1772.152308  -6654.285647   -316.024243
PG22  11327.543700  23323.101776   6073.529242   -555.478056
PG23  14427.805388   7648.713404  21307.149463   -207.940365
PG24 -17369.070773 -15083.541769 -13663.682269    -57.211432
PG25 -15166.932622 -11913.891096  18181.722460   -666.499689
PG26  -6237.698974  20740.809576  15270.637059     18.866370
PG27  -7671.842075  20522.892850 -14905.023807     -9.052790
PG28  13194.605211  -7692.357423 -21115.690508    751.318233
PG29 -18694.840979  -1076.019936  18813.920167    350.508075
PG30  22322.146505  -2648.692140 -14260.036236      5.538620
PG31 -13861.362528  10155.226399  20391.596297     84.532027
PG32 -20763.281442  16206.359570  -2957.344316   -382.060471
PJ01 -18155.753248  31884.227515 -16164.117967   -302.206782
PJ02 -25540.978649  20659.922849  31095.620549      0.351267
PJ03 -34169.822583  24651.271688   4678.572302      0.427159
PJ07 -25361.496259  33687.972671     34.571413 999999.999999
PR01 -12267.770139  13023.418463 -18191.980616     33.926886
PR02  -6636.773989  24599.824134   -279.832469    336.084553
PR03   2778.514753  19634.915805  16051.316305    146.855879
PR04  10639.864585   2711.428674  23033.892336    281.139063
PR05  12038.509822 -14933.820376  16829.711042     13.867555
PR07  -2937.373632 -19403.137834 -16289.376968    -50.050340
PR08 -10402.741667  -3518.155193 -22977.728893     20.792483
PR09  -2786.426755 -16181.890607 -19476.768264     35.085012
PR10 -15047.013132 -19508.525981  -6452.320556     34.138014
PR11 -19494.575523 -11634.542592  11603.284717    -44.897161
PR13   2635.379603  15660.718554  19954.486086    -16.032235
PR14  15133.398540  19504.572696   6474.714849     32.294968
PR15  19391.555447  14727.299995  -7418.999345    -18.213317
PR16  12793.481139  -2259.414815 -21944.791395    104.688989
PR17   7376.231030   8858.350810 -22742.571284    174.797568
PR18  21612.966403    601.454828 -13563.317652     26.508705
PR19  24186.914945  -7432.342122   3183.784722    -60.937565
PR20  11744.454039 -11827.871849  19328.801737   -356.689656
PR21  -7918.870427  -8583.261053  22680.881611    -10.652814
PR22 -22625.686153    525.009281  11652.017017    -64.895014
PR23 -22426.380936   9502.467429  -7599.508753    186.351366
PR24 -10214.467294  12074.625303 -20037.410421   -172.951884
PR26  12901.036957 -12052.314139  18406.735028     25.879834
EOF
